[{"OBJECT_NAME":"STARLINK-6353","OBJECT_ID":"2023-088J","EPOCH":"2026-03-09T02:40:57.857664","MEAN_MOTION":15.025351,"ECCENTRICITY":0.00011101,"INCLINATION":43.0016,"RA_OF_ASC_NODE":110.5408,"ARG_OF_PERICENTER":269.8975,"MEAN_ANOMALY":90.174,"EPHEMERIS_TYPE":0,"CLASSIFICATION_TYPE":"U","NORAD_CAT_ID":57056,"ELEMENT_SET_NO":999,"REV_AT_EPOCH":15028,"BSTAR":-1.203375e-5,"MEAN_MOTION_DOT":-3.66e-6,"MEAN_MOTION_DDOT":0},{"OBJECT_NAME":"COSMOS 2251 DEB","OBJECT_ID":"1993-036AZN","EPOCH":"2026-03-08T04:55:11.679456","MEAN_MOTION":14.74823481,"ECCENTRICITY":0.01364476,"INCLINATION":73.9716,"RA_OF_ASC_NODE":347.1087,"ARG_OF_PERICENTER":142.1945,"MEAN_ANOMALY":218.8911,"EPHEMERIS_TYPE":0,"CLASSIFICATION_TYPE":"U","NORAD_CAT_ID":36385,"ELEMENT_SET_NO":999,"REV_AT_EPOCH":86361,"BSTAR":0.002162243,"MEAN_MOTION_DOT":0.00016854,"MEAN_MOTION_DDOT":0}]
